{
    "links": {
        "self": "http://www.neowsapp.com/rest/v1/neo/3092262?api_key=iIulBulltgU6a56xZRHN4H3l9WmuAYTsLGpBGhQ2"
    },
    "id": "3092262",
    "neo_reference_id": "3092262",
    "name": "(2000 JX8)",
    "designation": "2000 JX8",
    "nasa_jpl_url": "http://ssd.jpl.nasa.gov/sbdb.cgi?sstr=3092262",
    "absolute_magnitude_h": 25.4,
    "estimated_diameter": {
        "kilometers": {
            "estimated_diameter_min": 0.022108281,
            "estimated_diameter_max": 0.0494356193
        },
        "meters": {
            "estimated_diameter_min": 22.1082810359,
            "estimated_diameter_max": 49.435619262
        },
        "miles": {
            "estimated_diameter_min": 0.0137374447,
            "estimated_diameter_max": 0.0307178602
        },
        "feet": {
            "estimated_diameter_min": 72.5337327539,
            "estimated_diameter_max": 162.1903570994
        }
    },
    "is_potentially_hazardous_asteroid": false,
    "close_approach_data": [
        {
            "close_approach_date": "2000-05-05",
            "close_approach_date_full": "2000-May-05 05:03",
            "epoch_date_close_approach": 957502980000,
            "relative_velocity": {
                "kilometers_per_second": "5.6224465555",
                "kilometers_per_hour": "20240.8075997903",
                "miles_per_hour": "12576.8506999919"
            },
            "miss_distance": {
                "astronomical": "0.0188334339",
                "lunar": "7.3262057871",
                "kilometers": "2817441.596225793",
                "miles": "1750677.0279222234"
            },
            "orbiting_body": "Earth"
        }
    ],
    "orbital_data": {
        "orbit_id": "11",
        "orbit_determination_date": "2017-04-06 09:17:00",
        "first_observation_date": "2000-05-02",
        "last_observation_date": "2000-05-05",
        "data_arc_in_days": 3,
        "observations_used": 20,
        "orbit_uncertainty": "8",
        "minimum_orbit_intersection": ".0187992",
        "jupiter_tisserand_invariant": "4.410",
        "epoch_osculation": "2451668.5",
        "eccentricity": ".3317748474242678",
        "semi_major_axis": "1.534339611656845",
        "inclination": "5.982956306697854",
        "ascending_node_longitude": "41.89965479828639",
        "orbital_period": "694.1937075818488",
        "perihelion_distance": "1.025284321102385",
        "perihelion_argument": "188.9348932365025",
        "aphelion_distance": "2.043394902211305",
        "perihelion_time": "2451674.979790750151",
        "mean_anomaly": "356.6396631882761",
        "mean_motion": ".5185872416706604",
        "equinox": "J2000",
        "orbit_class": {
            "orbit_class_type": "AMO",
            "orbit_class_description": "Near-Earth asteroid orbits similar to that of 1221 Amor",
            "orbit_class_range": "1.017 AU < q (perihelion) < 1.3 AU"
        }
    },
    "is_sentry_object": false
}